{
  "type": "FeatureCollection",
  "features": [
    {
      "type": "Feature",
      "properties": {
        "norad_id": 34079,
        "name": "IRIDIUM 33 DEB",
        "group": "iridium-33-debris",
        "lat": 28.084519019549607,
        "lon": -174.83080264402852,
        "alt_km": 620.1868643082953,
        "timestamp": "2025-12-16T03:53:27.440265+00:00",
        "meta_object_name": "IRIDIUM 33 DEB",
        "meta_object_id": "1997-051CN",
        "meta_epoch": "2025-12-15T07:52:02.606880",
        "meta_mean_motion": 14.83601624,
        "meta_eccentricity": 0.0005294,
        "meta_inclination": 86.3778,
        "meta_ra_of_asc_node": 7.4856,
        "meta_arg_of_pericenter": 359.8748,
        "meta_mean_anomaly": 18.7249,
        "meta_ephemeris_type": 0,
        "meta_classification_type": "U",
        "meta_norad_cat_id": 34079,
        "meta_element_set_no": 999,
        "meta_rev_at_epoch": 89016,
        "meta_bstar": 0.0011079142,
        "meta_mean_motion_dot": 9.162e-05,
        "meta_mean_motion_ddot": 0,
        "tle_line1": "1 34079U 97051CN  25349.32780795  .00009162  00000+0  11079-2 0  9996",
        "tle_line2": "2 34079  86.3778   7.4856 0005294 359.8748  18.7249 14.83601624890168"
      },
      "geometry": {
        "type": "Point",
        "coordinates": [
          -174.83080264402852,
          28.084519019549607
        ]
      }
    },
    {
      "type": "Feature",
      "properties": {
        "norad_id": 34088,
        "name": "IRIDIUM 33 DEB",
        "group": "iridium-33-debris",
        "lat": -19.847797393022933,
        "lon": 27.844114173522406,
        "alt_km": 602.6344427293589,
        "timestamp": "2025-12-16T03:53:27.440276+00:00",
        "meta_object_name": "IRIDIUM 33 DEB",
        "meta_object_id": "1997-051CX",
        "meta_epoch": "2025-12-15T08:43:17.800608",
        "meta_mean_motion": 14.91519953,
        "meta_eccentricity": 0.0006051,
        "meta_inclination": 86.3852,
        "meta_ra_of_asc_node": 29.5186,
        "meta_arg_of_pericenter": 168.2567,
        "meta_mean_anomaly": 206.0704,
        "meta_ephemeris_type": 0,
        "meta_classification_type": "U",
        "meta_norad_cat_id": 34088,
        "meta_element_set_no": 999,
        "meta_rev_at_epoch": 88781,
        "meta_bstar": 0.0014607296,
        "meta_mean_motion_dot": 0.0001467,
        "meta_mean_motion_ddot": 0,
        "tle_line1": "1 34088U 97051CX  25349.36340047  .00014670  00000+0  14607-2 0  9992",
        "tle_line2": "2 34088  86.3852  29.5186 0006051 168.2567 206.0704 14.91519953887813"
      },
      "geometry": {
        "type": "Point",
        "coordinates": [
          27.844114173522406,
          -19.847797393022933
        ]
      }
    },
    {
      "type": "Feature",
      "properties": {
        "norad_id": 34091,
        "name": "IRIDIUM 33 DEB",
        "group": "iridium-33-debris",
        "lat": 48.941115492365846,
        "lon": 69.47801249961083,
        "alt_km": 632.9109275233932,
        "timestamp": "2025-12-16T03:53:27.440287+00:00",
        "meta_object_name": "IRIDIUM 33 DEB",
        "meta_object_id": "1997-051DA",
        "meta_epoch": "2025-12-15T06:36:15.430176",
        "meta_mean_motion": 14.82039108,
        "meta_eccentricity": 0.00334728,
        "meta_inclination": 86.3419,
        "meta_ra_of_asc_node": 65.6725,
        "meta_arg_of_pericenter": 284.0176,
        "meta_mean_anomaly": 75.7325,
        "meta_ephemeris_type": 0,
        "meta_classification_type": "U",
        "meta_norad_cat_id": 34091,
        "meta_element_set_no": 999,
        "meta_rev_at_epoch": 87904,
        "meta_bstar": 0.0030295558,
        "meta_mean_motion_dot": 0.00024368,
        "meta_mean_motion_ddot": 0,
        "tle_line1": "1 34091U 97051DA  25349.27517859  .00024368  00000+0  30296-2 0  9990",
        "tle_line2": "2 34091  86.3419  65.6725 0033472 284.0176  75.7325 14.82039108879041"
      },
      "geometry": {
        "type": "Point",
        "coordinates": [
          69.47801249961083,
          48.941115492365846
        ]
      }
    },
    {
      "type": "Feature",
      "properties": {
        "norad_id": 34097,
        "name": "IRIDIUM 33 DEB",
        "group": "iridium-33-debris",
        "lat": 77.01635713153107,
        "lon": 16.648042506272766,
        "alt_km": 764.536812214772,
        "timestamp": "2025-12-16T03:53:27.440297+00:00",
        "meta_object_name": "IRIDIUM 33 DEB",
        "meta_object_id": "1997-051DG",
        "meta_epoch": "2025-12-15T00:45:16.242336",
        "meta_mean_motion": 14.34797868,
        "meta_eccentricity": 0.00823375,
        "meta_inclination": 86.2008,
        "meta_ra_of_asc_node": 0.3968,
        "meta_arg_of_pericenter": 354.7232,
        "meta_mean_anomaly": 5.3086,
        "meta_ephemeris_type": 0,
        "meta_classification_type": "U",
        "meta_norad_cat_id": 34097,
        "meta_element_set_no": 999,
        "meta_rev_at_epoch": 87152,
        "meta_bstar": 0.0010868906,
        "meta_mean_motion_dot": 3.22e-05,
        "meta_mean_motion_ddot": 0,
        "tle_line1": "1 34097U 97051DG  25349.03143799  .00003220  00000+0  10869-2 0  9996",
        "tle_line2": "2 34097  86.2008   0.3968 0082337 354.7232   5.3086 14.34797868871526"
      },
      "geometry": {
        "type": "Point",
        "coordinates": [
          16.648042506272766,
          77.01635713153107
        ]
      }
    },
    {
      "type": "Feature",
      "properties": {
        "norad_id": 34145,
        "name": "IRIDIUM 33 DEB",
        "group": "iridium-33-debris",
        "lat": 77.6604839332981,
        "lon": -11.365013396808111,
        "alt_km": 704.0303803118431,
        "timestamp": "2025-12-16T03:53:27.440308+00:00",
        "meta_object_name": "IRIDIUM 33 DEB",
        "meta_object_id": "1997-051DY",
        "meta_epoch": "2025-12-14T23:13:34.603968",
        "meta_mean_motion": 14.42306972,
        "meta_eccentricity": 0.00557707,
        "meta_inclination": 86.2115,
        "meta_ra_of_asc_node": 331.535,
        "meta_arg_of_pericenter": 86.7447,
        "meta_mean_anomaly": 274.0131,
        "meta_ephemeris_type": 0,
        "meta_classification_type": "U",
        "meta_norad_cat_id": 34145,
        "meta_element_set_no": 999,
        "meta_rev_at_epoch": 87670,
        "meta_bstar": 0.00084072497,
        "meta_mean_motion_dot": 2.847e-05,
        "meta_mean_motion_ddot": 0,
        "tle_line1": "1 34145U 97051DY  25348.96776162  .00002847  00000+0  84072-3 0  9999",
        "tle_line2": "2 34145  86.2115 331.5350 0055770  86.7447 274.0131 14.42306972876706"
      },
      "geometry": {
        "type": "Point",
        "coordinates": [
          -11.365013396808111,
          77.6604839332981
        ]
      }
    },
    {
      "type": "Feature",
      "properties": {
        "norad_id": 34146,
        "name": "IRIDIUM 33 DEB",
        "group": "iridium-33-debris",
        "lat": 20.942194513728772,
        "lon": 166.86392114757115,
        "alt_km": 717.1117807221435,
        "timestamp": "2025-12-16T03:53:27.440319+00:00",
        "meta_object_name": "IRIDIUM 33 DEB",
        "meta_object_id": "1997-051DZ",
        "meta_epoch": "2025-12-15T00:56:20.311872",
        "meta_mean_motion": 14.4906728,
        "meta_eccentricity": 0.00257158,
        "meta_inclination": 86.2837,
        "meta_ra_of_asc_node": 348.7851,
        "meta_arg_of_pericenter": 213.5044,
        "meta_mean_anomaly": 211.0793,
        "meta_ephemeris_type": 0,
        "meta_classification_type": "U",
        "meta_norad_cat_id": 34146,
        "meta_element_set_no": 999,
        "meta_rev_at_epoch": 88140,
        "meta_bstar": 0.00068451844,
        "meta_mean_motion_dot": 2.629e-05,
        "meta_mean_motion_ddot": 0,
        "tle_line1": "1 34146U 97051DZ  25349.03912398  .00002629  00000+0  68452-3 0  9994",
        "tle_line2": "2 34146  86.2837 348.7851 0025715 213.5044 211.0793 14.49067280881404"
      },
      "geometry": {
        "type": "Point",
        "coordinates": [
          166.86392114757115,
          20.942194513728772
        ]
      }
    },
    {
      "type": "Feature",
      "properties": {
        "norad_id": 34159,
        "name": "IRIDIUM 33 DEB",
        "group": "iridium-33-debris",
        "lat": 75.55606649215275,
        "lon": -147.5633709733708,
        "alt_km": 774.7663291515564,
        "timestamp": "2025-12-16T03:53:27.440329+00:00",
        "meta_object_name": "IRIDIUM 33 DEB",
        "meta_object_id": "1997-051EN",
        "meta_epoch": "2025-12-15T04:02:07.441152",
        "meta_mean_motion": 14.38500361,
        "meta_eccentricity": 0.00260031,
        "meta_inclination": 86.3507,
        "meta_ra_of_asc_node": 47.2061,
        "meta_arg_of_pericenter": 279.2441,
        "meta_mean_anomaly": 80.5816,
        "meta_ephemeris_type": 0,
        "meta_classification_type": "U",
        "meta_norad_cat_id": 34159,
        "meta_element_set_no": 999,
        "meta_rev_at_epoch": 87994,
        "meta_bstar": 0.0004355916,
        "meta_mean_motion_dot": 1.354e-05,
        "meta_mean_motion_ddot": 0,
        "tle_line1": "1 34159U 97051EN  25349.16814168  .00001354  00000+0  43559-3 0  9993",
        "tle_line2": "2 34159  86.3507  47.2061 0026003 279.2441  80.5816 14.38500361879949"
      },
      "geometry": {
        "type": "Point",
        "coordinates": [
          -147.5633709733708,
          75.55606649215275
        ]
      }
    }
  ]
}